#aV2011  6  7  0  0   .00000000      96 DD+AD WGS84 FIT  NGA
## 1639 172800.00000000   900.00000000 55719  .0000000000000
+   32     1  2  3  4  5  6  7  8  9 10 11 12 13 14 15 16 17
+         18 19 20 21 22 23 24 25 26 27 28 29 30 31 32  0  0
+          0  0  0  0  0  0  0  0  0  0  0  0  0  0  0  0  0
+          0  0  0  0  0  0  0  0  0  0  0  0  0  0  0  0  0
+          0  0  0  0  0  0  0  0  0  0  0  0  0  0  0  0  0
++         0  0  0  0  0  0  0  0  0  0  0  0  0  0  0  0  0
++         0  0  0  0  0  0  0  0  0  0  0  0  0  0  0  0  0
++         0  0  0  0  0  0  0  0  0  0  0  0  0  0  0  0  0
++         0  0  0  0  0  0  0  0  0  0  0  0  0  0  0  0  0
++         0  0  0  0  0  0  0  0  0  0  0  0  0  0  0  0  0
%c cc cc ccc ccc cccc cccc cccc cccc ccccc ccccc ccccc ccccc
%c cc cc ccc ccc cccc cccc cccc cccc ccccc ccccc ccccc ccccc
%f  0.0000000  0.000000000  0.00000000000  0.000000000000000
%f  0.0000000  0.000000000  0.00000000000  0.000000000000000
%i    0    0    0    0      0      0      0      0         0
%i    0    0    0    0      0      0      0      0         0
/*      NGA, ST. LOUIS,MO.                                  
/*   EPHEMERIS COMPUTED FROM  3 DAYS OF DATA                
/* CCCCCCCCCCCCCCCCCCCCCCCCCCCCCCCCCCCCCCCCCCCCCCCCCCCCCCCCC
/* CCCCCCCCCCCCCCCCCCCCCCCCCCCCCCCCCCCCCCCCCCCCCCCCCCCCCCCCC
*  2011  6  7  3  0   .00000000                                                 
P  1 -18985.233384   7861.547327  16446.717711     83.101153                    
V  1  10061.040577 -19220.995647  20400.071528      1.912751                    
P  2 -14020.992644 -21908.570634  -6477.309351    340.424227                    
V  2   -349.959214  -8716.866282  29504.128300       .019689                    
P  3  19358.486298  11526.585530 -14728.129650    725.231970                    
V  3 -18007.064020   1976.978355 -22457.785522       .050883                    
P  4  -5074.498571 -25154.524601   5898.158723    137.034913                    
V  4   6313.908169   5981.584131  30230.106737       .107475                    
P  5 -10193.093095 -11704.810878 -21560.515916   -171.068580                    
V  5  17405.236795 -21130.615465   3347.995906      -.056650                    
P  6  15401.337234  13840.625352 -16604.043030    260.958457                    
V  6 -21475.932092     19.207309 -19485.336765      -.849567                    
P  7   8966.441859 -14831.770049 -20060.305235     13.511160                    
V  7   9993.813677  23486.599695 -13106.962626       .012678                    
P  8   3088.041739 -21992.145342 -14104.199042      8.082818                    
V  8   6697.268695  16916.092099 -25400.979781       .001692                    
P  9 -16348.132518  -5335.832851  19686.839676     84.789833                    
V  9  -8961.646889 -24611.306309 -13732.403010       .023871                    
P 10   4315.563724 -21589.236203 -14798.382805     -2.884321                    
V 10  13894.060054 -12617.503031  23159.463768      -.011273                    
P 11  20234.272609   5674.682643  16103.587872   -157.356011                    
V 11   9925.109545  18967.259893 -18429.903910      -.032397                    
P 12 -19768.024197   6251.723136  16516.872849       .740075                    
V 12  12159.616143 -17168.367776  21246.711932       .026094                    
P 13  20025.136941  -6308.236959 -16452.423365    266.624845                    
V 13  19685.101654   5955.322328  21806.702009      -.016548                    
P 14  -1669.599499  14767.304413  22176.543743    154.542251                    
V 14 -27098.073691  -5763.419853   1671.428450       .022525                    
P 15 -26315.162359  -4141.052855   -781.851838   -123.160637                    
V 15   1393.710798  -2863.831335 -31382.109091       .023756                    
P 16   9147.760913  11969.323567 -21830.503566   -177.312887                    
V 16 -18452.930331  20726.862245   3925.589631      -.025481                    
P 17   1272.058489 -15277.324286  21839.135028    184.032694                    
V 17  26931.407144   4955.600124   1691.021870      -.003500                    
P 18 -16072.391124  20859.082453   1322.398124    140.919435                    
V 18  -3929.153849  -1539.679427 -31316.862906       .019321                    
P 19  25103.671429   8585.332347  -3454.354186   -148.666487                    
V 19  -4818.031386   1457.284386 -31075.172816      -.040755                    
P 20  20207.236431  -9809.186339  13982.429440     49.740328                    
V 20  -8508.557591  16222.837391  23495.286974       .002491                    
P 21  -8084.508269  16893.103003 -18181.362365   -149.471507                    
V 21 -10724.073762 -21887.829372 -15830.581293      -.025951                    
P 22  -7403.812934  22599.125635  11887.876883    147.813575                    
V 22 -12019.629342   9417.011736 -25873.820537      -.004369                    
P 23  26063.293734    129.595859  -6008.832770    301.027384                    
V 23   7070.195175   3529.099215  30387.820777      -.027540                    
P 24  16418.476291   1947.924807  20894.466491    396.442488                    
V 24   7528.967994  25306.048822  -8010.644809       .032040                    
P 25 -19119.362867  17291.849603   6313.073810      2.697902                    
V 25   2905.111097  -7948.442956  30490.092249       .017054                    
P 26 -20510.194441 -12905.712948 -11923.427971    -52.897463                    
V 26  13942.807289   2016.146178 -27170.521403      -.113832                    
P 27 -17590.254105 -10729.906658  17599.002550    272.545997                    
V 27  -7527.976709 -19522.865699 -19864.848559       .035537                    
P 28  10795.079174 -22304.485798   9716.997995     43.020323                    
V 28   9348.080426  -7311.222773 -28950.436555       .026141                    
P 29 -21628.942555   5846.934735 -14151.464050    213.335846                    
V 29 -17367.991125  -5601.374787  24142.743913       .028664                    
P 30   2224.799810  19062.928841 -18763.826266      8.226554                    
V 30 -14752.532242  17679.122119  16606.301836       .047183                    
P 31   6619.928635  25317.811129   4008.289281     91.727018                    
V 31  -3901.097905  -3729.207321  31769.022086       .058451                    
P 32  18638.190976     27.776630  19040.679507   -268.472410                    
V 32 -15285.198037  18260.787508  15568.934789      -.071645                    
EOF
